OCEANSAT-2              
1 35931U 09051A   26094.28282666  .00000051  00000+0  60407-4 0  9993
2 35931  98.2313  88.5265 0017490  82.7780 277.5374 13.99655003868992
WORLDVIEW-2 (WV-2)      
1 35946U 09055A   26094.19504773  .00000292  00000+0  11104-3 0  9995
2 35946  98.4653 168.6916 0005544  84.5121 275.6698 14.37922113865016
SMOS                    
1 36036U 09059A   26094.03707097  .00000477  00000+0  16600-3 0  9998
2 36036  98.4434 282.4509 0000973  97.5833 262.5465 14.39779813862789
YAOGAN-7                
1 36110U 09069A   26094.22656753  .00001058  00000+0  15359-3 0  9991
2 36110  98.0168 340.5153 0023249 278.5347  81.3229 14.77936001878705
TANDEM-X                
1 36605U 10030A   26093.49709111  .00002022  00000+0  99474-4 0  9998
2 36605  97.4466 102.2676 0001854  93.0429 267.1017 15.19147196875308
CARTOSAT-2B             
1 36795U 10035A   26094.30794551  .00001859  00000+0  26100-3 0  9998
2 36795  98.0037 145.2994 0012616  70.9450 289.3126 14.78585145848935
YAOGAN-10               
1 36834U 10038A   26094.31611606  .00004070  00000+0  48193-3 0  9999
2 36834  97.9046 118.2990 0001624  86.1221   3.5616 14.85127219846249
COSMO-SKYMED 4          
1 37216U 10060A   26094.24968169  .00000456  00000+0  63785-4 0  9999
2 37216  97.8873 278.9177 0001458  82.0777 278.0602 14.82157360833616
RESOURCESAT-2           
1 37387U 11015A   26094.25809966 -.00000410  00000+0 -16504-3 0  9997
2 37387  98.7703 162.1926 0010526 103.8197 256.4153 14.22143699775673
HAIYANG-2A              
1 37781U 11043A   26094.27990244 -.00000083  00000+0 -40019-4 0  9993
2 37781  99.3413  98.4539 0003799 231.0128 129.0685 13.76912099736497
RASAT                   
1 37791U 11044D   26094.29572440  .00001018  00000+0  18508-3 0  9995
2 37791  98.0554 186.8358 0021895  68.1873 342.6807 14.68096303782341
SRMSAT                  
1 37841U 11058D   26094.28010965  .00000496  00000+0  12556-3 0  9990
2 37841  19.9707 146.8101 0011924 110.2073 318.6980 14.11557455747360
PLEIADES 1A             
1 38012U 11076F   26094.24751615  .00000562  00000+0  13064-3 0  9990
2 38012  98.2009 170.3331 0001405  75.1803  17.8728 14.58563110761210
ZIYUAN 1-02C (ZY 1-02C) 
1 38038U 11079A   26094.33113493  .00000803  00000+0  27874-3 0  9999
2 38038  98.4127 163.1689 0006856 158.9502 274.7273 14.38152741748595
ARIRANG-3 (KOMPSAT-3)   
1 38338U 12025B   26094.26283279  .00000937  00000+0  19562-3 0  9999
2 38338  98.1106  53.0317 0005347   1.8357 358.2863 14.62139331740542
EXACTVIEW-1 (ADS-1B)    
1 38709U 12039C   26094.30316144  .00000243  00000+0  12385-3 0  9995
2 38709  98.9667 210.0634 0011256  29.7998 330.3819 14.24962195712188
