[{"OBJECT_NAME":"OCEANSAT-2","OBJECT_ID":"2009-051A","EPOCH":"2026-04-04T06:47:16.223424","MEAN_MOTION":13.99655003,"ECCENTRICITY":0.00174905,"INCLINATION":98.2313,"RA_OF_ASC_NODE":88.5265,"ARG_OF_PERICENTER":82.778,"MEAN_ANOMALY":277.5374,"EPHEMERIS_TYPE":0,"CLASSIFICATION_TYPE":"U","NORAD_CAT_ID":35931,"ELEMENT_SET_NO":999,"REV_AT_EPOCH":86899,"BSTAR":6.0407185e-5,"MEAN_MOTION_DOT":5.1e-7,"MEAN_MOTION_DDOT":0},{"OBJECT_NAME":"WORLDVIEW-2 (WV-2)","OBJECT_ID":"2009-055A","EPOCH":"2026-04-04T04:40:52.123872","MEAN_MOTION":14.37922113,"ECCENTRICITY":0.00055444,"INCLINATION":98.4653,"RA_OF_ASC_NODE":168.6916,"ARG_OF_PERICENTER":84.5121,"MEAN_ANOMALY":275.6698,"EPHEMERIS_TYPE":0,"CLASSIFICATION_TYPE":"U","NORAD_CAT_ID":35946,"ELEMENT_SET_NO":999,"REV_AT_EPOCH":86501,"BSTAR":0.00011103538,"MEAN_MOTION_DOT":2.92e-6,"MEAN_MOTION_DDOT":0},{"OBJECT_NAME":"SMOS","OBJECT_ID":"2009-059A","EPOCH":"2026-04-04T00:53:22.931808","MEAN_MOTION":14.39779813,"ECCENTRICITY":9.731e-5,"INCLINATION":98.4434,"RA_OF_ASC_NODE":282.4509,"ARG_OF_PERICENTER":97.5833,"MEAN_ANOMALY":262.5465,"EPHEMERIS_TYPE":0,"CLASSIFICATION_TYPE":"U","NORAD_CAT_ID":36036,"ELEMENT_SET_NO":999,"REV_AT_EPOCH":86278,"BSTAR":0.00016599611,"MEAN_MOTION_DOT":4.77e-6,"MEAN_MOTION_DDOT":0},{"OBJECT_NAME":"YAOGAN-7","OBJECT_ID":"2009-069A","EPOCH":"2026-04-04T05:26:15.434592","MEAN_MOTION":14.77936001,"ECCENTRICITY":0.00232495,"INCLINATION":98.0168,"RA_OF_ASC_NODE":340.5153,"ARG_OF_PERICENTER":278.5347,"MEAN_ANOMALY":81.3229,"EPHEMERIS_TYPE":0,"CLASSIFICATION_TYPE":"U","NORAD_CAT_ID":36110,"ELEMENT_SET_NO":999,"REV_AT_EPOCH":87870,"BSTAR":0.00015358947,"MEAN_MOTION_DOT":1.058e-5,"MEAN_MOTION_DDOT":0},{"OBJECT_NAME":"TANDEM-X","OBJECT_ID":"2010-030A","EPOCH":"2026-04-03T11:55:48.671904","MEAN_MOTION":15.19147196,"ECCENTRICITY":0.0001854,"INCLINATION":97.4466,"RA_OF_ASC_NODE":102.2676,"ARG_OF_PERICENTER":93.0429,"MEAN_ANOMALY":267.1017,"EPHEMERIS_TYPE":0,"CLASSIFICATION_TYPE":"U","NORAD_CAT_ID":36605,"ELEMENT_SET_NO":999,"REV_AT_EPOCH":87530,"BSTAR":9.9474e-5,"MEAN_MOTION_DOT":2.022e-5,"MEAN_MOTION_DDOT":0},{"OBJECT_NAME":"CARTOSAT-2B","OBJECT_ID":"2010-035A","EPOCH":"2026-04-04T07:23:26.492064","MEAN_MOTION":14.78585145,"ECCENTRICITY":0.00126166,"INCLINATION":98.0037,"RA_OF_ASC_NODE":145.2994,"ARG_OF_PERICENTER":70.945,"MEAN_ANOMALY":289.3126,"EPHEMERIS_TYPE":0,"CLASSIFICATION_TYPE":"U","NORAD_CAT_ID":36795,"ELEMENT_SET_NO":999,"REV_AT_EPOCH":84893,"BSTAR":0.00026100368,"MEAN_MOTION_DOT":1.859e-5,"MEAN_MOTION_DDOT":0},{"OBJECT_NAME":"YAOGAN-10","OBJECT_ID":"2010-038A","EPOCH":"2026-04-04T07:35:12.427584","MEAN_MOTION":14.85127219,"ECCENTRICITY":0.00016248,"INCLINATION":97.9046,"RA_OF_ASC_NODE":118.299,"ARG_OF_PERICENTER":86.1221,"MEAN_ANOMALY":3.5616,"EPHEMERIS_TYPE":0,"CLASSIFICATION_TYPE":"U","NORAD_CAT_ID":36834,"ELEMENT_SET_NO":999,"REV_AT_EPOCH":84624,"BSTAR":0.00048192986,"MEAN_MOTION_DOT":4.07e-5,"MEAN_MOTION_DDOT":0},{"OBJECT_NAME":"COSMO-SKYMED 4","OBJECT_ID":"2010-060A","EPOCH":"2026-04-04T05:59:32.498016","MEAN_MOTION":14.8215736,"ECCENTRICITY":0.00014582,"INCLINATION":97.8873,"RA_OF_ASC_NODE":278.9177,"ARG_OF_PERICENTER":82.0777,"MEAN_ANOMALY":278.0602,"EPHEMERIS_TYPE":0,"CLASSIFICATION_TYPE":"U","NORAD_CAT_ID":37216,"ELEMENT_SET_NO":999,"REV_AT_EPOCH":83361,"BSTAR":6.3784809e-5,"MEAN_MOTION_DOT":4.56e-6,"MEAN_MOTION_DDOT":0},{"OBJECT_NAME":"RESOURCESAT-2","OBJECT_ID":"2011-015A","EPOCH":"2026-04-04T06:11:39.810624","MEAN_MOTION":14.22143699,"ECCENTRICITY":0.00105269,"INCLINATION":98.7703,"RA_OF_ASC_NODE":162.1926,"ARG_OF_PERICENTER":103.8197,"MEAN_ANOMALY":256.4153,"EPHEMERIS_TYPE":0,"CLASSIFICATION_TYPE":"U","NORAD_CAT_ID":37387,"ELEMENT_SET_NO":999,"REV_AT_EPOCH":77567,"BSTAR":-0.0001650372,"MEAN_MOTION_DOT":-4.1e-6,"MEAN_MOTION_DDOT":0},{"OBJECT_NAME":"HAIYANG-2A","OBJECT_ID":"2011-043A","EPOCH":"2026-04-04T06:43:03.570816","MEAN_MOTION":13.76912099,"ECCENTRICITY":0.00037999,"INCLINATION":99.3413,"RA_OF_ASC_NODE":98.4539,"ARG_OF_PERICENTER":231.0128,"MEAN_ANOMALY":129.0685,"EPHEMERIS_TYPE":0,"CLASSIFICATION_TYPE":"U","NORAD_CAT_ID":37781,"ELEMENT_SET_NO":999,"REV_AT_EPOCH":73649,"BSTAR":-4.0018519e-5,"MEAN_MOTION_DOT":-8.3e-7,"MEAN_MOTION_DDOT":0},{"OBJECT_NAME":"RASAT","OBJECT_ID":"2011-044D","EPOCH":"2026-04-04T07:05:50.588160","MEAN_MOTION":14.68096303,"ECCENTRICITY":0.00218958,"INCLINATION":98.0554,"RA_OF_ASC_NODE":186.8358,"ARG_OF_PERICENTER":68.1873,"MEAN_ANOMALY":342.6807,"EPHEMERIS_TYPE":0,"CLASSIFICATION_TYPE":"U","NORAD_CAT_ID":37791,"ELEMENT_SET_NO":999,"REV_AT_EPOCH":78234,"BSTAR":0.00018508098,"MEAN_MOTION_DOT":1.018e-5,"MEAN_MOTION_DDOT":0},{"OBJECT_NAME":"SRMSAT","OBJECT_ID":"2011-058D","EPOCH":"2026-04-04T06:43:21.473760","MEAN_MOTION":14.11557455,"ECCENTRICITY":0.00119242,"INCLINATION":19.9707,"RA_OF_ASC_NODE":146.8101,"ARG_OF_PERICENTER":110.2073,"MEAN_ANOMALY":318.698,"EPHEMERIS_TYPE":0,"CLASSIFICATION_TYPE":"U","NORAD_CAT_ID":37841,"ELEMENT_SET_NO":999,"REV_AT_EPOCH":74736,"BSTAR":0.0001255641,"MEAN_MOTION_DOT":4.96e-6,"MEAN_MOTION_DDOT":0},{"OBJECT_NAME":"PLEIADES 1A","OBJECT_ID":"2011-076F","EPOCH":"2026-04-04T05:56:25.395360","MEAN_MOTION":14.5856311,"ECCENTRICITY":0.00014054,"INCLINATION":98.2009,"RA_OF_ASC_NODE":170.3331,"ARG_OF_PERICENTER":75.1803,"MEAN_ANOMALY":17.8728,"EPHEMERIS_TYPE":0,"CLASSIFICATION_TYPE":"U","NORAD_CAT_ID":38012,"ELEMENT_SET_NO":999,"REV_AT_EPOCH":76121,"BSTAR":0.00013063722,"MEAN_MOTION_DOT":5.62e-6,"MEAN_MOTION_DDOT":0},{"OBJECT_NAME":"ZIYUAN 1-02C (ZY 1-02C)","OBJECT_ID":"2011-079A","EPOCH":"2026-04-04T07:56:50.057952","MEAN_MOTION":14.38152741,"ECCENTRICITY":0.00068568,"INCLINATION":98.4127,"RA_OF_ASC_NODE":163.1689,"ARG_OF_PERICENTER":158.9502,"MEAN_ANOMALY":274.7273,"EPHEMERIS_TYPE":0,"CLASSIFICATION_TYPE":"U","NORAD_CAT_ID":38038,"ELEMENT_SET_NO":999,"REV_AT_EPOCH":74859,"BSTAR":0.00027874168,"MEAN_MOTION_DOT":8.03e-6,"MEAN_MOTION_DDOT":0},{"OBJECT_NAME":"ARIRANG-3 (KOMPSAT-3)","OBJECT_ID":"2012-025B","EPOCH":"2026-04-04T06:18:28.753056","MEAN_MOTION":14.62139331,"ECCENTRICITY":0.00053472,"INCLINATION":98.1106,"RA_OF_ASC_NODE":53.0317,"ARG_OF_PERICENTER":1.8357,"MEAN_ANOMALY":358.2863,"EPHEMERIS_TYPE":0,"CLASSIFICATION_TYPE":"U","NORAD_CAT_ID":38338,"ELEMENT_SET_NO":999,"REV_AT_EPOCH":74054,"BSTAR":0.00019562332,"MEAN_MOTION_DOT":9.37e-6,"MEAN_MOTION_DDOT":0},{"OBJECT_NAME":"EXACTVIEW-1 (ADS-1B)","OBJECT_ID":"2012-039C","EPOCH":"2026-04-04T07:16:33.148416","MEAN_MOTION":14.24962195,"ECCENTRICITY":0.00112568,"INCLINATION":98.9667,"RA_OF_ASC_NODE":210.0634,"ARG_OF_PERICENTER":29.7998,"MEAN_ANOMALY":330.3819,"EPHEMERIS_TYPE":0,"CLASSIFICATION_TYPE":"U","NORAD_CAT_ID":38709,"ELEMENT_SET_NO":999,"REV_AT_EPOCH":71218,"BSTAR":0.00012385162,"MEAN_MOTION_DOT":2.43e-6,"MEAN_MOTION_DDOT":0}]
